start=new Date('2023-06-27T00:00:00.000Z').valueOf();
sats=[{"REF_FRAME":"TEME","EPOCH":"2023-06-25T14:16:08.518656","BSTAR":"0.00003627000000","CLASSIFICATION_TYPE":"U","TLE_LINE2":"2 56338  97.6541 177.5445 0001650 104.0414 256.0994 15.01259500  9392","RA_OF_ASC_NODE":"177.5445","FILE":"3942670","PERIOD":"95.919","MEAN_MOTION":"15.01259500","ARG_OF_PERICENTER":"104.0414","ELEMENT_SET_NO":"999","OBJECT_NAME":"STARLINK-5554","NORAD_CAT_ID":"56338","MEAN_ANOMALY":"256.0994","DECAY_DATE":null,"TLE_LINE1":"1 56338U 23058X   23176.59454304  .00000407  00000-0  36270-4 0  9999","REV_AT_EPOCH":"939","OBJECT_TYPE":"PAYLOAD","CENTER_NAME":"EARTH","LAUNCH_DATE":"2023-04-27","SITE":"AFWTR","PERIAPSIS":"561.868","MEAN_MOTION_DOT":"0.00000407","TIME_SYSTEM":"UTC","SEMIMAJOR_AXIS":"6941.148","APOAPSIS":"564.159","ECCENTRICITY":"0.00016500","GP_ID":"234549782","MEAN_ELEMENT_THEORY":"SGP4","MEAN_MOTION_DDOT":"0.0000000000000","OBJECT_ID":"2023-058X","INCLINATION":"97.6541","EPHEMERIS_TYPE":"0","RCS_SIZE":"LARGE","COUNTRY_CODE":"US"},{"APOAPSIS":"564.090","ECCENTRICITY":"0.00015300","TIME_SYSTEM":"UTC","SEMIMAJOR_AXIS":"6941.163","MEAN_MOTION_DOT":"-0.00000095","PERIAPSIS":"561.966","SITE":"AFWTR","CENTER_NAME":"EARTH","LAUNCH_DATE":"2023-04-27","OBJECT_TYPE":"PAYLOAD","TLE_LINE1":"1 56339U 23058Y   23177.72022889 -.00000095  00000-0 -27980-5 0  9999","REV_AT_EPOCH":"956","COUNTRY_CODE":"US","RCS_SIZE":"LARGE","EPHEMERIS_TYPE":"0","INCLINATION":"97.6528","OBJECT_ID":"2023-058Y","MEAN_ELEMENT_THEORY":"SGP4","MEAN_MOTION_DDOT":"0.0000000000000","GP_ID":"234570294","FILE":"3943488","TLE_LINE2":"2 56339  97.6528 178.6707 0001530 107.1958 252.9434 15.01254909  9566","RA_OF_ASC_NODE":"178.6707","CLASSIFICATION_TYPE":"U","BSTAR":"-0.00000279800000","EPOCH":"2023-06-26T17:17:07.776096","REF_FRAME":"TEME","DECAY_DATE":null,"MEAN_ANOMALY":"252.9434","NORAD_CAT_ID":"56339","OBJECT_NAME":"STARLINK-5552","ELEMENT_SET_NO":"999","ARG_OF_PERICENTER":"107.1958","MEAN_MOTION":"15.01254909","PERIOD":"95.920"},{"COUNTRY_CODE":"US","RCS_SIZE":"LARGE","EPHEMERIS_TYPE":"0","INCLINATION":"97.6538","OBJECT_ID":"2023-058Z","MEAN_MOTION_DDOT":"0.0000000000000","MEAN_ELEMENT_THEORY":"SGP4","GP_ID":"234571222","ECCENTRICITY":"0.00019360","APOAPSIS":"564.370","SEMIMAJOR_AXIS":"6941.161","TIME_SYSTEM":"UTC","MEAN_MOTION_DOT":"0.00000225","PERIAPSIS":"561.682","SITE":"AFWTR","CENTER_NAME":"EARTH","LAUNCH_DATE":"2023-04-27","OBJECT_TYPE":"PAYLOAD","TLE_LINE1":"1 56340U 23058Z   23177.72578512  .00000225  00000-0  22132-4 0  9996","REV_AT_EPOCH":"956","DECAY_DATE":null,"NORAD_CAT_ID":"56340","MEAN_ANOMALY":"260.2764","OBJECT_NAME":"STARLINK-5540","ELEMENT_SET_NO":"999","ARG_OF_PERICENTER":"99.8679","MEAN_MOTION":"15.01255419","PERIOD":"95.920","RA_OF_ASC_NODE":"178.6638","TLE_LINE2":"2 56340  97.6538 178.6638 0001936  99.8679 260.2764 15.01255419  9564","FILE":"3943555","CLASSIFICATION_TYPE":"U","BSTAR":"0.00002213200000","EPOCH":"2023-06-26T17:25:07.834368","REF_FRAME":"TEME"},{"REF_FRAME":"TEME","CLASSIFICATION_TYPE":"U","RA_OF_ASC_NODE":"178.6742","TLE_LINE2":"2 56341  97.6518 178.6742 0001087 110.1417 249.9924 15.01254377  9567","FILE":"3943488","EPOCH":"2023-06-26T17:12:08.756928","BSTAR":"-0.00001334700000","PERIOD":"95.920","MEAN_MOTION":"15.01254377","MEAN_ANOMALY":"249.9924","NORAD_CAT_ID":"56341","DECAY_DATE":null,"ELEMENT_SET_NO":"999","ARG_OF_PERICENTER":"110.1417","OBJECT_NAME":"STARLINK-5543","TLE_LINE1":"1 56341U 23058AA  23177.71676802 -.00000230  00000-0 -13347-4 0  9993","REV_AT_EPOCH":"956","OBJECT_TYPE":"PAYLOAD","LAUNCH_DATE":"2023-04-27","CENTER_NAME":"EARTH","SEMIMAJOR_AXIS":"6941.164","TIME_SYSTEM":"UTC","ECCENTRICITY":"0.00010870","APOAPSIS":"563.784","SITE":"AFWTR","PERIAPSIS":"562.275","MEAN_MOTION_DOT":"-0.00000230","OBJECT_ID":"2023-058AA","INCLINATION":"97.6518","GP_ID":"234569803","MEAN_MOTION_DDOT":"0.0000000000000","MEAN_ELEMENT_THEORY":"SGP4","RCS_SIZE":"LARGE","COUNTRY_CODE":"US","EPHEMERIS_TYPE":"0"},{"OBJECT_ID":"2023-058AB","INCLINATION":"97.6534","GP_ID":"234547868","MEAN_ELEMENT_THEORY":"SGP4","MEAN_MOTION_DDOT":"0.0000000000000","COUNTRY_CODE":"US","RCS_SIZE":"LARGE","EPHEMERIS_TYPE":"0","OBJECT_TYPE":"PAYLOAD","TLE_LINE1":"1 56342U 23058AB  23176.72229258 -.00000142  00000-0 -64573-5 0  9993","REV_AT_EPOCH":"941","CENTER_NAME":"EARTH","LAUNCH_DATE":"2023-04-27","SEMIMAJOR_AXIS":"6941.157","TIME_SYSTEM":"UTC","APOAPSIS":"564.111","ECCENTRICITY":"0.00015690","SITE":"AFWTR","MEAN_MOTION_DOT":"-0.00000142","PERIAPSIS":"561.933","MEAN_MOTION":"15.01256676","PERIOD":"95.920","MEAN_ANOMALY":"255.2077","NORAD_CAT_ID":"56342","DECAY_DATE":null,"ARG_OF_PERICENTER":"104.9321","ELEMENT_SET_NO":"999","OBJECT_NAME":"STARLINK-5955","REF_FRAME":"TEME","CLASSIFICATION_TYPE":"U","TLE_LINE2":"2 56342  97.6534 177.6831 0001569 104.9321 255.2077 15.01256676  9411","FILE":"3942584","RA_OF_ASC_NODE":"177.6831","EPOCH":"2023-06-25T17:20:06.078912","BSTAR":"-0.00000645730000"},{"SITE":"AFWTR","MEAN_MOTION_DOT":"0.00000007","PERIAPSIS":"562.295","SEMIMAJOR_AXIS":"6941.160","TIME_SYSTEM":"UTC","APOAPSIS":"563.754","ECCENTRICITY":"0.00010510","OBJECT_TYPE":"PAYLOAD","TLE_LINE1":"1 56343U 23058AC  23176.71488282  .00000007  00000-0  51453-5 0  9998","REV_AT_EPOCH":"941","LAUNCH_DATE":"2023-04-27","CENTER_NAME":"EARTH","EPHEMERIS_TYPE":"0","COUNTRY_CODE":"US","RCS_SIZE":"LARGE","GP_ID":"234548364","MEAN_MOTION_DDOT":"0.0000000000000","MEAN_ELEMENT_THEORY":"SGP4","OBJECT_ID":"2023-058AC","INCLINATION":"97.6517","EPOCH":"2023-06-25T17:09:25.875648","BSTAR":"0.00000514530000","CLASSIFICATION_TYPE":"U","TLE_LINE2":"2 56343  97.6517 177.6913 0001051 108.4998 251.6340 15.01255846  9410","RA_OF_ASC_NODE":"177.6913","FILE":"3942584","REF_FRAME":"TEME","ELEMENT_SET_NO":"999","ARG_OF_PERICENTER":"108.4998","OBJECT_NAME":"STARLINK-5976","MEAN_ANOMALY":"251.6340","NORAD_CAT_ID":"56343","DECAY_DATE":null,"MEAN_MOTION":"15.01255846","PERIOD":"95.920"},{"CLASSIFICATION_TYPE":"U","RA_OF_ASC_NODE":"178.6727","TLE_LINE2":"2 56344  97.6523 178.6727 0001240 111.3138 248.8219 15.01254056  9562","FILE":"3943489","EPOCH":"2023-06-26T17:14:27.618144","BSTAR":"-0.00003301600000","REF_FRAME":"TEME","MEAN_ANOMALY":"248.8219","NORAD_CAT_ID":"56344","DECAY_DATE":null,"ELEMENT_SET_NO":"999","ARG_OF_PERICENTER":"111.3138","OBJECT_NAME":"STARLINK-5974","PERIOD":"95.920","MEAN_MOTION":"15.01254056","SEMIMAJOR_AXIS":"6941.165","TIME_SYSTEM":"UTC","ECCENTRICITY":"0.00012400","APOAPSIS":"563.891","SITE":"AFWTR","PERIAPSIS":"562.169","MEAN_MOTION_DOT":"-0.00000483","REV_AT_EPOCH":"956","TLE_LINE1":"1 56344U 23058AD  23177.71837521 -.00000483  00000-0 -33016-4 0  9998","OBJECT_TYPE":"PAYLOAD","CENTER_NAME":"EARTH","LAUNCH_DATE":"2023-04-27","RCS_SIZE":"LARGE","COUNTRY_CODE":"US","EPHEMERIS_TYPE":"0","OBJECT_ID":"2023-058AD","INCLINATION":"97.6523","GP_ID":"234570315","MEAN_ELEMENT_THEORY":"SGP4","MEAN_MOTION_DDOT":"0.0000000000000"},{"TLE_LINE2":"2 56345  97.6518 177.5640 0000830 117.1231 243.0078 15.01254379  9390","FILE":"3942584","RA_OF_ASC_NODE":"177.5640","CLASSIFICATION_TYPE":"U","BSTAR":"0.00000109030000","EPOCH":"2023-06-25T13:52:29.298432","REF_FRAME":"TEME","DECAY_DATE":null,"MEAN_ANOMALY":"243.0078","NORAD_CAT_ID":"56345","OBJECT_NAME":"STARLINK-5979","ELEMENT_SET_NO":"999","ARG_OF_PERICENTER":"117.1231","MEAN_MOTION":"15.01254379","PERIOD":"95.920","ECCENTRICITY":"0.00008300","APOAPSIS":"563.605","SEMIMAJOR_AXIS":"6941.164","TIME_SYSTEM":"UTC","MEAN_MOTION_DOT":"-0.00000045","PERIAPSIS":"562.453","SITE":"AFWTR","LAUNCH_DATE":"2023-04-27","CENTER_NAME":"EARTH","OBJECT_TYPE":"PAYLOAD","TLE_LINE1":"1 56345U 23058AE  23176.57811688 -.00000045  00000-0  10903-5 0  9992","REV_AT_EPOCH":"939","COUNTRY_CODE":"US","RCS_SIZE":"LARGE","EPHEMERIS_TYPE":"0","INCLINATION":"97.6518","OBJECT_ID":"2023-058AE","MEAN_ELEMENT_THEORY":"SGP4","MEAN_MOTION_DDOT":"0.0000000000000","GP_ID":"234548367"},{"TIME_SYSTEM":"UTC","SEMIMAJOR_AXIS":"6941.146","APOAPSIS":"563.630","ECCENTRICITY":"0.00008920","SITE":"AFWTR","MEAN_MOTION_DOT":"0.00000285","PERIAPSIS":"562.392","OBJECT_TYPE":"PAYLOAD","REV_AT_EPOCH":"956","TLE_LINE1":"1 56346U 23058AF  23177.71652076  .00000285  00000-0  26741-4 0  9995","LAUNCH_DATE":"2023-04-27","CENTER_NAME":"EARTH","COUNTRY_CODE":"US","RCS_SIZE":"LARGE","EPHEMERIS_TYPE":"0","OBJECT_ID":"2023-058AF","INCLINATION":"97.6514","GP_ID":"234570408","MEAN_MOTION_DDOT":"0.0000000000000","MEAN_ELEMENT_THEORY":"SGP4","CLASSIFICATION_TYPE":"U","FILE":"3943497","TLE_LINE2":"2 56346  97.6514 178.6743 0000892 123.1493 236.9817 15.01260242  9565","RA_OF_ASC_NODE":"178.6743","EPOCH":"2023-06-26T17:11:47.393664","BSTAR":"0.00002674100000","REF_FRAME":"TEME","NORAD_CAT_ID":"56346","MEAN_ANOMALY":"236.9817","DECAY_DATE":null,"ARG_OF_PERICENTER":"123.1493","ELEMENT_SET_NO":"999","OBJECT_NAME":"STARLINK-5837","MEAN_MOTION":"15.01260242","PERIOD":"95.919"},{"LAUNCH_DATE":"2023-04-27","CENTER_NAME":"EARTH","OBJECT_TYPE":"PAYLOAD","REV_AT_EPOCH":"954","TLE_LINE1":"1 56347U 23058AG  23177.57766202 -.00000328  00000-0 -20980-4 0  9996","MEAN_MOTION_DOT":"-0.00000328","PERIAPSIS":"562.392","SITE":"AFWTR","ECCENTRICITY":"0.00009250","APOAPSIS":"563.676","SEMIMAJOR_AXIS":"6941.169","TIME_SYSTEM":"UTC","MEAN_MOTION_DDOT":"0.0000000000000","MEAN_ELEMENT_THEORY":"SGP4","GP_ID":"234569626","INCLINATION":"97.6518","OBJECT_ID":"2023-058AG","EPHEMERIS_TYPE":"0","COUNTRY_CODE":"US","RCS_SIZE":"LARGE","REF_FRAME":"TEME","BSTAR":"-0.00002098000000","EPOCH":"2023-06-26T13:51:49.998528","FILE":"3943471","TLE_LINE2":"2 56347  97.6518 178.5498 0000925 117.7937 242.3381 15.01252947  9543","RA_OF_ASC_NODE":"178.5498","CLASSIFICATION_TYPE":"U","MEAN_MOTION":"15.01252947","PERIOD":"95.920","OBJECT_NAME":"STARLINK-5829","ARG_OF_PERICENTER":"117.7937","ELEMENT_SET_NO":"999","DECAY_DATE":null,"NORAD_CAT_ID":"56347","MEAN_ANOMALY":"242.3381"}];
